MEAN_MOTION;ECCENTRICITY;INCLINATION;RA_OF_ASC_NODE;ARG_OF_PERICENTER;MEAN_ANOMALY;BSTAR;MEAN_MOTION_DOT;MEAN_MOTION_DDOT;TYPE
11.999337;0.0001568;51.9999;269.3304;105.0866;359.9783;0.00047671;-4.8E-7;0;Globalstar
11.9993371;0.0001571;51.9999;269.0784;105.407;42.3289;0.00048243;-4.7E-7;0;Globalstar
11.99933731;0.0001573;51.9999;266.6247;107.6948;359.6728;0.00039595;-5.4E-7;0;Globalstar
11.99933758;0.000157;51.9999;263.9316;109.4906;339.9146;0.00026722;-6.5E-7;0;Globalstar
11.99933762;0.000157;51.9999;263.4456;109.9119;35.8626;0.00023029;-6.8E-7;0;Globalstar
11.99933793;0.0001569;51.9999;262.1749;110.9838;264.8028;0.00017896;-7.2E-7;0;Globalstar
11.99933794;0.0001568;51.9999;260.9536;111.7944;55.0648;0.00011343;-7.7E-7;0;Globalstar
11.99933806;0.0001565;51.9999;259.471;113.2134;261.8678;1.5206E-5;-8.5E-7;0;Globalstar
11.99933888;0.0001562;51.9998;255.5447;116.2401;51.1803;7.9286E-6;-8.6E-7;0;Globalstar
11.99933888;0.0001562;51.9998;255.5447;116.2401;51.1803;7.9286E-6;-8.6E-7;0;Globalstar
11.99933871;0.0001558;51.9998;252.8409;119.5197;47.1818;-2.5249E-5;-8.8E-7;0;Globalstar
11.99933868;0.0001551;51.9998;251.5697;120.7715;276.7304;-2.5271E-5;-8.8E-7;0;Globalstar
11.99933879;0.0001549;51.9997;250.6281;121.7879;339.9459;-2.0256E-6;-8.6E-7;0;Globalstar
11.99933908;0.0001535;51.9997;247.7066;123.2874;325.4819;0.00011345;-7.7E-7;0;Globalstar
11.999339;0.0001527;51.9997;245.9454;124.7138;257.4996;0.00010413;-7.8E-7;0;Globalstar
11.99933855;0.000152;51.9997;244.9883;125.2899;345.9671;6.2161E-5;-8.1E-7;0;Globalstar
11.99933842;0.0001517;51.9998;243.2037;126.8631;315.221;3.7987E-5;-8.3E-7;0;Globalstar
11.99933821;0.0001509;51.9998;242.2823;127.44;346.6492;3.3609E-5;-8.3E-7;0;Globalstar
11.99933814;0.0001499;51.9999;240.2761;129.1049;309.8883;2.6784E-5;-8.4E-7;0;Globalstar
11.99933741;0.0001468;52.0004;237.5718;131.4657;308.56;-0.00028535;-1.09E-6;0;Globalstar
11.99933658;0.0001457;52.0004;235.3449;133.0338;264.5672;-0.00034804;-1.14E-6;0;Globalstar
11.99933636;0.0001457;52.0004;234.867;133.3773;307.5496;-0.00034351;-1.14E-6;0;Globalstar
11.9993363;0.0001456;52.0004;234.6281;133.5887;328.9772;-0.00034141;-1.14E-6;0;Globalstar
11.99933551;0.0001441;52.0005;232.1626;134.818;306.6602;-0.00035125;-1.15E-6;0;Globalstar
11.99933547;0.0001437;52.0005;231.9257;135.1919;324.771;-0.00034637;-1.14E-6;0;Globalstar
11.99933401;0.0001425;52.0006;228.7467;139.3742;358.7721;-0.00034513;-1.14E-6;0;Globalstar
11.99933319;0.0001396;52.0008;226.0361;141.8399;7.2507;-0.00032549;-1.12E-6;0;Globalstar
11.99933319;0.0001396;52.0008;226.0361;141.8399;7.2507;-0.00032549;-1.12E-6;0;Globalstar
11.9993325;0.0001378;52.0009;223.8103;142.4131;322.5887;-0.00031236;-1.11E-6;0;Globalstar
11.99933205;0.0001369;52.001;221.5742;144.4844;292.8929;-0.00031379;-1.12E-6;0;Globalstar
11.99933205;0.0001369;52.001;221.5742;144.4844;292.8929;-0.00031379;-1.12E-6;0;Globalstar
11.99933179;0.0001359;52.001;221.1047;143.7293;323.8511;-0.0002983;-1.1E-6;0;Globalstar
11.99932942;0.0001367;52.001;219.1265;146.5906;241.4651;-0.0004423;-1.22E-6;0;Globalstar
11.99932853;0.0001359;52.0009;216.4213;147.4903;242.6322;-0.00028317;-1.09E-6;0;Globalstar
11.99932846;0.0001373;52.001;216.1649;149.184;290.2067;4.7792E-5;-8.2E-7;0;Globalstar
11.99932791;0.0001371;52.0008;213.46;150.6175;290.051;-0.00011105;-9.5E-7;0;Globalstar
11.9993278;0.0001375;52.0008;213.2207;150.3289;312.5533;-8.7103E-5;-9.3E-7;0;Globalstar
11.99932554;0.000131;52.0002;210.5183;154.5559;305.0574;7.6308E-5;-8.0E-7;0;Globalstar
11.99932582;0.0001315;52.0008;210.0532;154.5987;328.8871;0.00011854;-7.7E-7;0;Globalstar
11.99932588;0.0001307;52.001;209.8084;154.67;0.3607;0.00012568;-7.6E-7;0;Globalstar
11.99932562;0.0001297;52.001;205.3482;158.1226;282.4167;0.00035187;-5.8E-7;0;Globalstar
11.99932559;0.0001297;52.0009;205.1094;158.6475;303.4416;0.00036396;-5.7E-7;0;Globalstar
11.99932367;0.0001275;52.0009;202.6106;160.6098;333.5386;5.7014E-5;-8.2E-7;0;Globalstar
11.99932382;0.0001252;52.001;200.1542;163.4101;295.3526;-0.00021959;-1.04E-6;0;Globalstar
11.9993241;0.0001236;52.001;198.1702;165.0377;223.3507;-0.00010941;-9.5E-7;0;Globalstar
11.9993244;0.0001236;52.001;197.4633;165.8668;271.8197;-5.6269E-5;-9.1E-7;0;Globalstar
11.99932502;0.0001217;52.0009;194.5425;167.8862;256.1831;8.9396E-5;-7.9E-7;0;Globalstar
11.99932498;0.0001216;52.0009;194.265;167.7315;339.9702;-6.8692E-5;-9.2E-7;0;Globalstar
11.99932564;0.0001199;52.0008;191.8021;169.7179;312.847;-7.9042E-5;-9.3E-7;0;Globalstar
11.99932598;0.0001193;52.0008;191.1083;170.0859;340.9565;-5.0027E-5;-9.0E-7;0;Globalstar
11.99932678;0.0001177;52.0007;188.648;172.4309;309.4295;4.7139E-5;-8.2E-7;0;Globalstar
11.99932709;0.000116;52.0005;186.3884;174.8315;317.0165;0.00011493;-7.7E-7;0;Globalstar
11.99932771;0.000113;52.0004;183.4485;177.7288;330.9895;0.0002733;-6.4E-7;0;Globalstar
11.99932861;0.0001111;52.0004;180.5247;179.0576;320.9916;0.00043475;-5.1E-7;0;Globalstar
11.99932902;0.0001093;52.0003;178.2936;181.9594;282.5946;0.00048389;-4.7E-7;0;Globalstar
11.9993299;0.000108;52.0002;175.5882;184.6486;281.9337;0.00054094;-4.3E-7;0;Globalstar
11.99933018;0.0001085;52.0001;175.1105;184.4504;325.1059;0.00054138;-4.3E-7;0;Globalstar
11.9993313;0.0001069;52;172.4074;187.1231;320.8813;0.00049124;-4.7E-7;0;Globalstar
11.99933255;0.0001048;52.0001;169.9165;189.5712;338.1766;0.00043762;-5.1E-7;0;Globalstar
11.99933317;0.0001029;52;168.4231;190.6726;202.9951;0.0004013;-5.4E-7;0;Globalstar
11.99933388;0.0001019;52;167.4839;191.6578;262.6994;0.00039179;-5.5E-7;0;Globalstar
11.99933487;9.95E-5;51.9999;164.7789;195.2704;260.4732;0.00030084;-6.2E-7;0;Globalstar
11.99933603;9.76E-5;51.9997;162.0422;198.3485;309.4532;0.000253;-6.6E-7;0;Globalstar
11.99933682;9.6E-5;51.9995;159.3682;201.9999;257.7164;0.00021786;-6.9E-7;0;Globalstar
11.99933691;9.53E-5;51.9994;157.829;203.4808;195.2365;0.00019227;-7.1E-7;0;Globalstar
11.99933775;9.61E-5;51.9994;156.4243;202.4232;280.3823;0.00019772;-7.0E-7;0;Globalstar
11.99933795;9.46E-5;51.9993;154.9085;205.3776;178.8052;0.00017925;-7.2E-7;0;Globalstar
11.99933852;9.38E-5;51.9992;153.7028;206.4788;303.6186;0.00021938;-6.8E-7;0;Globalstar
11.99933901;9.16E-5;51.9991;151.2461;210.626;264.2236;0.00020084;-7.0E-7;0;Globalstar
11.99933912;9.13E-5;51.9991;150.9992;210.9113;298.3864;0.00020194;-7.0E-7;0;Globalstar
11.99933978;8.88E-5;51.999;148.5405;214.2059;263.0045;0.00025778;-6.5E-7;0;Globalstar
11.99933989;8.87E-5;51.999;148.2959;214.5105;293.4821;0.00026062;-6.5E-7;0;Globalstar
11.99934062;8.65E-5;51.999;145.826;217.7113;276.0626;0.00034852;-5.8E-7;0;Globalstar
11.99934077;8.42E-5;51.9989;143.1294;221.1477;260.517;0.00033745;-5.9E-7;0;Globalstar
11.99934096;8.32E-5;51.999;141.3831;223.3761;167.9853;0.00033266;-5.9E-7;0;Globalstar
11.99934113;8.2E-5;51.999;140.4163;224.8001;271.1118;0.00037614;-5.6E-7;0;Globalstar
11.99934124;8.11E-5;51.999;138.6531;227.0873;205.529;0.00034451;-5.8E-7;0;Globalstar
11.99934151;8.01E-5;51.999;137.7109;228.481;269.3513;0.00038596;-5.5E-7;0;Globalstar
11.99934183;7.83E-5;51.999;135.0052;232.1782;267.9658;0.00033372;-5.9E-7;0;Globalstar
11.99934197;7.66E-5;51.999;132.2941;235.9049;275.2521;0.00019847;-7.0E-7;0;Globalstar
11.9993421;7.49E-5;51.9991;129.5909;239.7774;269.7012;3.7529E-5;-8.3E-7;0;Globalstar
11.99934201;7.4E-5;51.9991;127.8328;242.1656;195.9086;-0.00010378;-9.5E-7;0;Globalstar
11.99934202;7.29E-5;51.9991;126.8885;243.7885;262.8817;-0.00012986;-9.7E-7;0;Globalstar
11.99934197;7.07E-5;51.9992;124.1832;248.1246;260.0773;-0.00021175;-1.03E-6;0;Globalstar
11.99934213;6.98E-5;51.9993;121.4884;251.5664;241.5789;-0.00017731;-1.0E-6;0;Globalstar
11.99934228;6.97E-5;51.9993;119.9421;253.3178;189.9561;-0.00012563;-9.6E-7;0;Globalstar
11.99934239;6.89E-5;51.9994;118.7703;255.0818;260.1396;-4.8488E-5;-9.0E-7;0;Globalstar
11.99934253;6.87E-5;51.9995;117.014;257.2214;183.6573;5.1581E-5;-8.2E-7;0;Globalstar
11.99934273;6.89E-5;51.9995;116.0658;258.3737;257.2982;0.00012486;-7.6E-7;0;Globalstar
11.9993427;6.62E-5;51.9997;113.5758;262.8077;270.5891;0.00024431;-6.6E-7;0;Globalstar
11.9993428;6.53E-5;51.9999;110.8865;266.6639;242.9875;0.00029068;-6.3E-7;0;Globalstar
11.99934272;6.48E-5;52.0001;108.9099;269.2667;158.0658;0.0002207;-6.8E-7;0;Globalstar
11.99934278;6.45E-5;52.0002;108.1821;270.3949;239.5573;0.00021182;-6.9E-7;0;Globalstar
11.99934264;6.29E-5;52.0004;106.1768;273.6343;200.0333;9.3685E-5;-7.9E-7;0;Globalstar
11.99934271;6.28E-5;52.0004;105.4789;274.9398;233.7668;5.9123E-5;-8.1E-7;0;Globalstar
11.99934274;6.2E-5;52.0006;103.2556;278.4459;181.9833;-8.0122E-5;-9.3E-7;0;Globalstar
11.9993432;6.17E-5;52.0009;100.0693;283.5052;227.4578;-0.00015756;-9.9E-7;0;Globalstar
11.99934331;6.15E-5;52.001;98.7907;285.3182;108.2757;-0.00018163;-1.01E-6;0;Globalstar
11.99934321;6.18E-5;52.001;98.072;286.1148;175.6683;-0.00021058;-1.03E-6;0;Globalstar
11.99934269;6.15E-5;52.0012;95.3843;289.9087;145.7094;-0.00026028;-1.07E-6;0;Globalstar
11.9993422;6.16E-5;52.0013;94.6585;291.2475;223.9002;-0.00033875;-1.14E-6;0;Globalstar
11.99934091;6.27E-5;52.0017;91.9528;294.6445;223.6502;-0.00031185;-1.11E-6;0;Globalstar
11.99933979;6.28E-5;52.002;87.9473;300.4421;137.2138;-0.00042801;-1.21E-6;0;Globalstar
11.99933958;6.23E-5;52.0021;87.2549;301.565;162.2727;-0.00043257;-1.21E-6;0;Globalstar
11.99933937;6.24E-5;52.0021;86.775;302.2221;208.273;-0.00044931;-1.22E-6;0;Globalstar
11.99933898;6.18E-5;52.0023;84.5495;305.7064;160.4389;-0.00043256;-1.21E-6;0;Globalstar
11.99933846;6.19E-5;52.0025;82.5713;308.7147;77.8637;-0.00043222;-1.21E-6;0;Globalstar
11.99933814;6.2E-5;52.0026;81.3684;310.8504;197.5718;-0.00042785;-1.21E-6;0;Globalstar
11.99933772;6.21E-5;52.0027;79.8654;312.8322;76.8761;-0.00043241;-1.21E-6;0;Globalstar
11.99933691;6.31E-5;52.0029;77.1599;316.6183;75.6672;-0.00042757;-1.21E-6;0;Globalstar
11.9993368;6.34E-5;52.0029;76.4454;317.6644;136.1232;-0.00041156;-1.19E-6;0;Globalstar
11.99933614;6.42E-5;52.003;74.4565;320.1722;71.2895;-0.00041844;-1.2E-6;0;Globalstar
11.99933594;6.46E-5;52.0031;73.7106;320.9161;182.1227;-0.00041416;-1.2E-6;0;Globalstar
